[
    {
        "Altitude(m)": 604969.0890110598,
        "Argument of Periapsis(deg)": 0.0,
        "Eccentricity": 0.0,
        "Inclination(deg)": 60.0,
        "Latitude(deg)": -0.09255605753784929,
        "Longitude(deg)": 134.9775275171407,
        "Mean Anomaly(deg)": 0.0,
        "RAAN(deg)": 235.0,
        "Satellite Name": "Test1 1034",
        "Satellite Number": 1034,
        "Semi-Major Axis(m)": 6980739.136638005,
        "Time(s)": 0
    },
    {
        "Altitude(m)": 604900.0292370645,
        "Argument of Periapsis(deg)": 0.00010418945913296404,
        "Eccentricity": 0.0,
        "Inclination(deg)": 60.0,
        "Latitude(deg)": 0.44786957912866754,
        "Longitude(deg)": 135.24565106260917,
        "Mean Anomaly(deg)": 0.620106145461853,
        "RAAN(deg)": 234.99957995086027,
        "Satellite Name": "Test1 1034",
        "Satellite Number": 1034,
        "Semi-Major Axis(m)": 6980739.136638005,
        "Time(s)": 10
    }
]